NORAD_CAT_ID,OBJECT_NAME,OBJECT_TYPE,EPOCH,MEAN_MOTION,ECCENTRICITY,INCLINATION,RA_OF_ASC_NODE,ARG_OF_PERICENTER,MEAN_ANOMALY,BSTAR,MEAN_MOTION_DOT,MEAN_MOTION_DDOT,TLE_LINE0,TLE_LINE1,TLE_LINE2,SEMIMAJOR_AXIS,PERIOD,APOGEE,PERIGEE,DECAYED
52492.0,STARLINK-3916,PAYLOAD,2023-05-19 19:43:07,15.08840993,0.0001135,53.2174,329.9304,85.9185,274.1937,0.00030804,4.618e-05,0.0,0 STARLINK-3916,1 52492U 22049AT  23139.82161988  .00004618  00000-0  30804-3 0  9997,2 52492  53.2174 329.9304 0001135  85.9185 274.1937 15.08840993 57677,6917.877,95.437,540.528,538.957,0.0
52492.0,STARLINK-3916,PAYLOAD,2023-05-19 22:53:53,15.08846382,0.0001127,53.2174,329.3356,82.0904,278.0216,0.00018326,2.63e-05,0.0,0 STARLINK-3916,1 52492U 22049AT  23139.95409632  .00002630  00000-0  18326-3 0  9999,2 52492  53.2174 329.3356 0001127  82.0904 278.0216 15.08846382 57857,6917.861,95.437,540.506,538.946,0.0
52492.0,STARLINK-3916,PAYLOAD,2023-05-20 17:58:31,15.08846355,0.0001127,53.2176,325.7667,85.0579,275.0542,0.00016919,2.406e-05,0.0,0 STARLINK-3916,1 52492U 22049AT  23140.74897603  .00002406  00000-0  16919-3 0  9994,2 52492  53.2176 325.7667 0001127  85.0579 275.0542 15.08846355 57810,6917.861,95.437,540.506,538.946,0.0
52492.0,STARLINK-3916,PAYLOAD,2023-05-21 05:06:13,15.08836316,0.0001393,53.2171,323.6856,73.6298,286.4847,-2.3307e-05,-6.59e-06,0.0,0 STARLINK-3916,1 52492U 22049AT  23141.21266032 -.00000659  00000-0 -23307-4 0  9993,2 52492  53.2171 323.6856 0001393  73.6298 286.4847 15.08836316 58044,6917.892,95.438,540.72,538.793,0.0
52492.0,STARLINK-3916,PAYLOAD,2023-05-21 16:13:56,15.08821739,9.61e-05,53.217,321.6043,79.3215,280.7885,-0.00029257,-4.939e-05,0.0,0 STARLINK-3916,1 52492U 22049AT  23141.67634617 -.00004939  00000-0 -29257-3 0  9995,2 52492  53.2170 321.6043 0000961  79.3215 280.7885 15.08821739 58111,6917.936,95.439,540.466,539.136,0.0
52492.0,STARLINK-3916,PAYLOAD,2023-05-21 21:00:05,15.08827207,0.0001079,53.2165,320.7132,78.7852,281.3262,-0.00013094,-2.37e-05,0.0,0 STARLINK-3916,1 52492U 22049AT  23141.87506698 -.00002370  00000-0 -13094-3 0  9993,2 52492  53.2165 320.7132 0001079  78.7852 281.3262 15.08827207 57981,6917.919,95.438,540.531,539.038,0.0
52492.0,STARLINK-3916,PAYLOAD,2023-05-22 04:57:01,15.08836556,0.0001089,53.2176,319.2245,73.8244,286.2868,0.0001314,1.804e-05,0.0,0 STARLINK-3916,1 52492U 22049AT  23142.20626663  .00001804  00000-0  13140-3 0  9997,2 52492  53.2176 319.2245 0001089  73.8244 286.2868 15.08836556 58190,6917.891,95.438,540.509,539.003,0.0
52492.0,STARLINK-3916,PAYLOAD,2023-05-22 16:04:43,15.08850949,0.0001007,53.2159,317.1466,74.1084,286.0019,0.00097382,0.00015249,0.0,0 STARLINK-3916,1 52492U 22049AT  23142.66994755  .00015249  00000-0  97382-3 0  9995,2 52492  53.2159 317.1466 0001007  74.1084 286.0019 15.08850949 58265,6917.847,95.437,540.409,539.015,0.0
52492.0,STARLINK-3916,PAYLOAD,2023-05-23 17:30:53,15.08848988,9.9e-05,53.2166,312.3872,66.163,293.9465,0.00043764,6.686e-05,0.0,0 STARLINK-3916,1 52492U 22049AT  23143.72978661  .00006686  00000-0  43764-3 0  9991,2 52492  53.2166 312.3872 0000990  66.1630 293.9465 15.08848988 58429,6917.853,95.437,540.403,539.033,0.0
52492.0,STARLINK-3916,PAYLOAD,2023-05-24 11:00:08,15.0884174,0.0001035,53.2157,309.1191,62.8801,297.2296,0.00013476,1.858e-05,0.0,0 STARLINK-3916,1 52492U 22049AT  23144.45842810  .00001858  00000-0  13476-3 0  9991,2 52492  53.2157 309.1191 0001035  62.8801 297.2296 15.08841740 58531,6917.875,95.437,540.456,539.024,0.0
52492.0,STARLINK-3916,PAYLOAD,2023-05-24 15:46:17,15.08841463,0.0001017,53.2168,308.2263,65.7436,294.3662,4.4965e-05,4.28e-06,0.0,0 STARLINK-3916,1 52492U 22049AT  23144.65714893  .00000428  00000-0  44965-4 0  9992,2 52492  53.2168 308.2263 0001017  65.7436 294.3662 15.08841463 58402,6917.876,95.437,540.444,539.037,0.0
52492.0,STARLINK-3916,PAYLOAD,2023-05-25 14:01:41,15.08843785,0.0001046,53.2185,304.0608,86.9259,273.1853,0.00011568,1.554e-05,0.0,0 STARLINK-3916,1 52492U 22049AT  23145.58450476  .00001554  00000-0  11568-3 0  9992,2 52492  53.2185 304.0608 0001046  86.9259 273.1853 15.08843785 58549,6917.869,95.437,540.457,539.01,0.0
52492.0,STARLINK-3916,PAYLOAD,2023-05-25 15:37:04,15.08844223,0.0001047,53.2185,303.7635,86.6137,273.4975,0.00011644,1.566e-05,0.0,0 STARLINK-3916,1 52492U 22049AT  23145.65074430  .00001566  00000-0  11644-3 0  9990,2 52492  53.2185 303.7635 0001047  86.6137 273.4975 15.08844223 58713,6917.867,95.437,540.457,539.008,0.0
52492.0,STARLINK-3916,PAYLOAD,2023-05-25 20:23:13,15.08847439,0.0001071,53.2184,302.8705,90.7848,269.3266,0.00014277,1.986e-05,0.0,0 STARLINK-3916,1 52492U 22049AT  23145.84946070  .00001986  00000-0  14277-3 0  9990,2 52492  53.2184 302.8705 0001071  90.7848 269.3266 15.08847439 58586,6917.858,95.437,540.464,538.982,0.0
52492.0,STARLINK-3916,PAYLOAD,2023-05-26 13:52:28,15.08831755,9.87e-05,53.2177,299.5965,103.6474,256.4628,0.00011964,1.616e-05,0.0,0 STARLINK-3916,1 52492U 22049AT  23146.57811083  .00001616  00000-0  11964-3 0  9996,2 52492  53.2177 299.5965 0000987 103.6474 256.4628 15.08831755 58697,6917.906,95.438,540.453,539.088,0.0
52492.0,STARLINK-3916,PAYLOAD,2023-05-26 17:03:14,15.088394,0.0001061,53.2184,299.0025,103.4546,256.6565,1.3416e-05,-7.4e-07,0.0,0 STARLINK-3916,1 52492U 22049AT  23146.71058751 -.00000074  00000-0  13416-4 0  9990,2 52492  53.2184 299.0025 0001061 103.4546 256.6565 15.08839400 58876,6917.882,95.438,540.481,539.013,0.0
52492.0,STARLINK-3916,PAYLOAD,2023-05-27 10:32:29,15.08825358,0.0001489,53.2184,295.7333,121.5068,238.607,0.00012437,1.691e-05,0.0,0 STARLINK-3916,1 52492U 22049AT  23147.43923186  .00001691  00000-0  12437-3 0  9999,2 52492  53.2184 295.7333 0001489 121.5068 238.6070 15.08825358 58985,6917.925,95.438,540.82,538.76,0.0
52492.0,STARLINK-3916,PAYLOAD,2023-05-27 16:54:01,15.08845044,0.0001235,53.2178,294.546,119.6729,240.4386,-4.9022e-05,-1.068e-05,0.0,0 STARLINK-3916,1 52492U 22049AT  23147.70418696 -.00001068  00000-0 -49022-4 0  9995,2 52492  53.2178 294.5460 0001235 119.6729 240.4386 15.08845044 59028,6917.865,95.437,540.584,538.876,0.0
52492.0,STARLINK-3916,PAYLOAD,2023-05-28 02:26:20,15.08856441,9.52e-05,53.2181,292.7615,100.2524,259.8576,-0.00018406,-3.217e-05,0.0,0 STARLINK-3916,1 52492U 22049AT  23148.10162166 -.00003217  00000-0 -18406-3 0  9997,2 52492  53.2181 292.7615 0000952 100.2524 259.8576 15.08856441 58924,6917.83,95.437,540.354,539.037,0.0
52492.0,STARLINK-3916,PAYLOAD,2023-05-28 10:23:16,15.08836282,9.44e-05,53.2177,291.2752,98.2319,261.878,6.8005e-05,7.95e-06,0.0,0 STARLINK-3916,1 52492U 22049AT  23148.43283074  .00000795  00000-0  68005-4 0  9992,2 52492  53.2177 291.2752 0000944  98.2319 261.8780 15.08836282 59139,6917.892,95.438,540.41,539.104,0.0
52492.0,STARLINK-3916,PAYLOAD,2023-05-28 16:44:48,15.08842391,9.66e-05,53.2175,290.0863,104.8488,255.2611,0.00012031,1.628e-05,0.0,0 STARLINK-3916,1 52492U 22049AT  23148.69778580  .00001628  00000-0  12031-3 0  9994,2 52492  53.2175 290.0863 0000966 104.8488 255.2611 15.08842391 59017,6917.873,95.437,540.406,539.07,0.0
52492.0,STARLINK-3916,PAYLOAD,2023-05-29 13:24:50,15.0883738,0.0001066,53.2195,286.2228,110.2232,249.8875,5.1557e-05,5.33e-06,0.0,0 STARLINK-3916,1 52492U 22049AT  23149.55891215  .00000533  00000-0  51557-4 0  9992,2 52492  53.2195 286.2228 0001066 110.2232 249.8875 15.08837380 59148,6917.888,95.438,540.491,539.016,0.0
52492.0,STARLINK-3916,PAYLOAD,2023-05-29 18:10:59,15.08839705,0.0001052,53.2191,285.3306,108.5425,251.5682,6.3881e-05,7.29e-06,0.0,0 STARLINK-3916,1 52492U 22049AT  23149.75763038  .00000729  00000-0  63881-4 0  9995,2 52492  53.2191 285.3306 0001052 108.5425 251.5682 15.08839705 59330,6917.881,95.438,540.474,539.019,0.0
52492.0,STARLINK-3916,PAYLOAD,2023-05-30 08:29:27,15.08839685,0.0001109,53.2186,282.6514,92.9895,267.1224,4.3619e-05,4.06e-06,0.0,0 STARLINK-3916,1 52492U 22049AT  23150.35379108  .00000406  00000-0  43619-4 0  9993,2 52492  53.2186 282.6514 0001109  92.9895 267.1224 15.08839685 59269,6917.881,95.438,540.514,538.979,0.0
52492.0,STARLINK-3916,PAYLOAD,2023-05-30 16:26:23,15.08842872,0.0001023,53.2184,281.1646,87.5371,272.5739,1.9571e-05,2.4e-07,0.0,0 STARLINK-3916,1 52492U 22049AT  23150.68498941  .00000024  00000-0  19571-4 0  9992,2 52492  53.2184 281.1646 0001023  87.5371 272.5739 15.08842872 59310,6917.872,95.437,540.444,539.029,0.0
52492.0,STARLINK-3916,PAYLOAD,2023-05-31 01:58:41,15.08844299,9.76e-05,53.2183,279.3805,85.2874,274.8229,-4.227e-06,-3.55e-06,0.0,0 STARLINK-3916,1 52492U 22049AT  23151.08242833 -.00000355  00000-0 -42270-5 0  9996,2 52492  53.2183 279.3805 0000976  85.2874 274.8229 15.08844299 59532,6917.867,95.437,540.407,539.057,0.0
52492.0,STARLINK-3916,PAYLOAD,2023-05-31 13:06:22,15.08880028,0.0001264,53.2185,277.3,74.6286,285.4845,-0.00049628,-8.186e-05,0.0,0 STARLINK-3916,1 52492U 22049AT  23151.54609653 -.00008186  00000-0 -49628-3 0  9996,2 52492  53.2185 277.3000 0001264  74.6286 285.4845 15.08880028 59441,6917.758,95.435,540.497,538.749,0.0
52492.0,STARLINK-3916,PAYLOAD,2023-05-31 14:41:46,15.08843195,0.0001057,53.2183,277.0028,80.8882,279.223,5.3233e-05,5.6e-06,0.0,0 STARLINK-3916,1 52492U 22049AT  23151.61234849  .00000560  00000-0  53233-4 0  9999,2 52492  53.2183 277.0028 0001057  80.8882 279.2230 15.08843195 59451,6917.871,95.437,540.467,539.004,0.0
52492.0,STARLINK-3916,PAYLOAD,2023-06-01 01:49:28,15.08844097,0.0001066,53.2182,274.9213,79.9719,280.1393,5.0518e-05,5.16e-06,0.0,0 STARLINK-3916,1 52492U 22049AT  23152.07602704  .00000516  00000-0  50518-4 0  9993,2 52492  53.2182 274.9213 0001066  79.9719 280.1393 15.08844097 59521,6917.868,95.437,540.47,538.995,0.0
52492.0,STARLINK-3916,PAYLOAD,2023-06-02 12:47:58,15.08833897,0.0001022,53.2175,268.3784,86.5339,273.577,-9.1343e-06,-4.33e-06,0.0,0 STARLINK-3916,1 52492U 22049AT  23153.53331695 -.00000433  00000-0 -91343-5 0  9995,2 52492  53.2175 268.3784 0001022  86.5339 273.5770 15.08833897 59900,6917.899,95.438,540.471,539.057,0.0
